OBJECT_NAME,OBJECT_ID,EPOCH,MEAN_MOTION,ECCENTRICITY,INCLINATION,RA_OF_ASC_NODE,ARG_OF_PERICENTER,MEAN_ANOMALY,EPHEMERIS_TYPE,CLASSIFICATION_TYPE,NORAD_CAT_ID,ELEMENT_SET_NO,REV_AT_EPOCH,BSTAR,MEAN_MOTION_DOT,MEAN_MOTION_DDOT
GSAT0225 (GALILEO 29),2024-079A,2026-07-19T09:03:08.287200,1.70473943,.00004351,55.1387,100.1800,337.1149,204.2884,0,U,59598,999,1386,0,-.37E-6,0
GSAT0227 (GALILEO 30),2024-079C,2026-07-18T02:12:23.834592,1.70473877,.00029504,55.1327,100.2145,69.2435,290.8270,0,U,59600,999,1389,0,-.31E-6,0
GSAT0232 (GALILEO 32),2024-167A,2026-07-21T08:48:43.552800,1.70474219,.000638,55.1779,220.3751,233.5892,192.1922,0,U,61182,999,1146,0,.65E-6,0
GSAT0226 (GALILEO 31),2024-167B,2026-07-21T15:01:36.505344,1.70474203,.00031869,55.1767,220.3752,239.5166,76.5193,0,U,61183,999,1143,0,.67E-6,0
BEIDOU-3 M25 (C47),2024-168B,2026-07-21T07:18:22.759776,1.86230267,.00034672,54.4404,301.0557,291.4678,80.3433,0,U,61186,999,1242,0,-.101E-5,0
BEIDOU-3 M27 (C49),2024-168C,2026-07-19T10:07:53.508576,1.86230211,.00008576,54.4377,301.1038,40.8164,284.0569,0,U,61187,999,985,0,-.96E-6,0
GPS BIII-7  (PRN 01),2024-242A,2026-07-19T17:19:15.611808,2.00572353,.00179964,54.8338,332.8621,4.3540,337.1791,0,U,62339,999,1190,0,-.109E-5,0
QZS-6 (QZSS/PRN 200),2025-023A,2026-07-21T15:58:45.214176,1.00274155,.00020171,0.0157,49.4360,65.2669,154.8936,0,U,62876,999,529,0,-.231E-5,0
COSMOS 2584 (704K),2025-042A,2026-07-21T09:30:22.148352,2.13103797,.00053888,65.1045,71.6393,207.4156,152.6221,0,U,63130,999,1077,0,-.53E-6,0
GPS BIII-8  (PRN 21),2025-116A,2026-07-21T05:52:26.666112,2.00573612,.00084109,55.2580,29.7605,339.2727,205.1759,0,U,64202,999,855,0,-.88E-6,0
COSMOS 2596 (708K),2025-206B,2026-07-21T06:50:08.982816,2.13101004,.00112503,64.6123,313.7979,306.9983,83.6515,0,U,65590,999,664,0,-.89E-6,0
GSAT0233 (GALILEO 33),2025-302A,2026-07-21T05:49:54.703200,1.70474103,.0001157,54.3550,101.1603,153.0101,24.4101,0,U,67160,999,370,0,-.46E-6,0
GSAT0234 (GALILEO 34),2025-302C,2026-07-20T08:07:51.406752,1.70474060,.00018615,54.3566,101.1849,324.8516,197.7380,0,U,67162,999,374,0,-.42E-6,0
GPS BIII-9  (PRN 20),2026-017A,2026-07-20T02:27:29.246112,2.00570435,.00213058,55.1095,87.4339,260.2926,99.5185,0,U,67588,999,43227,0,-.54E-6,0
GPS BIII-10 (PRN 13),2026-087A,2026-07-20T19:41:38.666688,2.00573215,.00205238,54.9613,206.4574,106.0114,258.1289,0,U,68791,999,151,0,.74E-6,0
